IRIDIUM 144             
1 43249U 18030A   25315.27374322 -.00000058  00000+0 -27665-4 0  9994
2 43249  86.4000  21.4965 0002000  99.4315 260.7107 14.34217254398907
IRIDIUM 149             
1 43250U 18030B   25315.28008614 -.00000097  00000+0 -41557-4 0  9994
2 43250  86.3998  21.4634 0001954  96.5990 263.5428 14.34216994398920
IRIDIUM 157             
1 43251U 18030C   25315.22934590 -.00000009  00000+0 -10201-4 0  9995
2 43251  86.4001  21.5330 0002259  98.0354 262.1098 14.34217308398895
IRIDIUM 140             
1 43252U 18030D   25315.24837269 -.00000021  00000+0 -14518-4 0  9992
2 43252  86.4001  21.5381 0001860  96.3656 263.7751 14.34217365398958
IRIDIUM 145             
1 43253U 18030E   25315.23568577  .00000044  00000+0  85473-5 0  9997
2 43253  86.4002  21.5162 0001940 102.4524 257.6889 14.34218268398888
IRIDIUM 146             
1 43254U 18030F   25315.28642830 -.00000010  00000+0 -10627-4 0  9991
2 43254  86.3998  21.5077 0001952 101.2635 258.8780 14.34217468398907
IRIDIUM 148             
1 43255U 18030G   25315.25471602  .00000091  00000+0  25455-4 0  9998
2 43255  86.4005  21.5610 0002281  98.9478 261.1976 14.34217704398934
IRIDIUM 142             
1 43256U 18030H   25315.29277039  .00000090  00000+0  25147-4 0  9998
2 43256  86.4002  21.4422 0001900 107.0670 253.0734 14.34217409398906
